[{"OBJECT_NAME":"OBJECT Y","OBJECT_ID":"2023-085Y","EPOCH":"2026-03-09T22:38:54.992256","MEAN_MOTION":15.32500153,"ECCENTRICITY":0.00063298,"INCLINATION":97.4849,"RA_OF_ASC_NODE":180.8653,"ARG_OF_PERICENTER":67.4431,"MEAN_ANOMALY":292.748,"EPHEMERIS_TYPE":0,"CLASSIFICATION_TYPE":"U","NORAD_CAT_ID":57026,"ELEMENT_SET_NO":999,"REV_AT_EPOCH":15160,"BSTAR":0.00065512761,"MEAN_MOTION_DOT":0.00020524,"MEAN_MOTION_DDOT":0},{"OBJECT_NAME":"STARLINK-5983","OBJECT_ID":"2023-094G","EPOCH":"2026-03-09T22:00:01.999584","MEAN_MOTION":15.16743376,"ECCENTRICITY":0.00013318,"INCLINATION":43.0022,"RA_OF_ASC_NODE":28.7705,"ARG_OF_PERICENTER":223.3645,"MEAN_ANOMALY":292.738,"EPHEMERIS_TYPE":0,"CLASSIFICATION_TYPE":"U","NORAD_CAT_ID":57224,"ELEMENT_SET_NO":999,"REV_AT_EPOCH":577,"BSTAR":0.060915258,"MEAN_MOTION_DOT":0.01320603,"MEAN_MOTION_DDOT":0}]
